{
  "links" : {
    "next" : "https://api.nasa.gov/neo/rest/v1/feed?start_date=2013-01-16&end_date=2013-01-16&detailed=true&api_key=t0TVs3DtDT2H8Oy2Zy8m2eVrNsAVKAexjcZXUckd",
    "prev" : "https://api.nasa.gov/neo/rest/v1/feed?start_date=2013-01-14&end_date=2013-01-14&detailed=true&api_key=t0TVs3DtDT2H8Oy2Zy8m2eVrNsAVKAexjcZXUckd",
    "self" : "https://api.nasa.gov/neo/rest/v1/feed?start_date=2013-01-15&end_date=2013-01-15&detailed=true&api_key=t0TVs3DtDT2H8Oy2Zy8m2eVrNsAVKAexjcZXUckd"
  },
  "element_count" : 8,
  "near_earth_objects" : {
    "2013-01-15" : [ {
      "links" : {
        "self" : "https://api.nasa.gov/neo/rest/v1/neo/3625070?api_key=t0TVs3DtDT2H8Oy2Zy8m2eVrNsAVKAexjcZXUckd"
      },
      "neo_reference_id" : "3625070",
      "name" : "(2013 BQ27)",
      "nasa_jpl_url" : "http://ssd.jpl.nasa.gov/sbdb.cgi?sstr=3625070",
      "absolute_magnitude_h" : 24.1,
      "estimated_diameter" : {
        "kilometers" : {
          "estimated_diameter_min" : 0.040230458,
          "estimated_diameter_max" : 0.0899580388
        },
        "meters" : {
          "estimated_diameter_min" : 40.2304579834,
          "estimated_diameter_max" : 89.9580388169
        },
        "miles" : {
          "estimated_diameter_min" : 0.0249980399,
          "estimated_diameter_max" : 0.0558973165
        },
        "feet" : {
          "estimated_diameter_min" : 131.9896957704,
          "estimated_diameter_max" : 295.1379320721
        }
      },
      "is_potentially_hazardous_asteroid" : false,
      "close_approach_data" : [ {
        "close_approach_date" : "2013-01-15",
        "epoch_date_close_approach" : 1358236800000,
        "relative_velocity" : {
          "kilometers_per_second" : "13.4163509918",
          "kilometers_per_hour" : "48298.8635704465",
          "miles_per_hour" : "30011.0355335366"
        },
        "miss_distance" : {
          "astronomical" : "0.1121643603",
          "lunar" : "43.6319389343",
          "kilometers" : "16779550",
          "miles" : "10426329"
        },
        "orbiting_body" : "Earth"
      } ],
      "orbital_data" : {
        "orbit_id" : "4",
        "orbit_determination_date" : "2017-04-06 08:47:02",
        "orbit_uncertainty" : "8",
        "minimum_orbit_intersection" : ".106917",
        "jupiter_tisserand_invariant" : "5.083",
        "epoch_osculation" : "2456313.5",
        "eccentricity" : ".240856088201397",
        "semi_major_axis" : "1.233311824018851",
        "inclination" : "23.84893844814958",
        "ascending_node_longitude" : "122.1964667221113",
        "orbital_period" : "500.2738123890381",
        "perihelion_distance" : ".9362611625531406",
        "perihelion_argument" : "281.8571950486073",
        "aphelion_distance" : "1.530362485484561",
        "perihelion_time" : "2456241.599758654965",
        "mean_anomaly" : "51.73983975016431",
        "mean_motion" : ".7196059259644914",
        "equinox" : "J2000"
      }
    }, {
      "links" : {
        "self" : "https://api.nasa.gov/neo/rest/v1/neo/3625071?api_key=t0TVs3DtDT2H8Oy2Zy8m2eVrNsAVKAexjcZXUckd"
      },
      "neo_reference_id" : "3625071",
      "name" : "(2013 BR27)",
      "nasa_jpl_url" : "http://ssd.jpl.nasa.gov/sbdb.cgi?sstr=3625071",
      "absolute_magnitude_h" : 27.8,
      "estimated_diameter" : {
        "kilometers" : {
          "estimated_diameter_min" : 0.0073207399,
          "estimated_diameter_max" : 0.016369672
        },
        "meters" : {
          "estimated_diameter_min" : 7.3207398935,
          "estimated_diameter_max" : 16.3696720474
        },
        "miles" : {
          "estimated_diameter_min" : 0.0045488955,
          "estimated_diameter_max" : 0.0101716395
        },
        "feet" : {
          "estimated_diameter_min" : 24.0181762721,
          "estimated_diameter_max" : 53.70627484
        }
      },
      "is_potentially_hazardous_asteroid" : false,
      "close_approach_data" : [ {
        "close_approach_date" : "2013-01-15",
        "epoch_date_close_approach" : 1358236800000,
        "relative_velocity" : {
          "kilometers_per_second" : "11.1611765902",
          "kilometers_per_hour" : "40180.235724733",
          "miles_per_hour" : "24966.4359146264"
        },
        "miss_distance" : {
          "astronomical" : "0.0014565952",
          "lunar" : "0.5666155219",
          "kilometers" : "217903.53125",
          "miles" : "135398.984375"
        },
        "orbiting_body" : "Earth"
      } ],
      "orbital_data" : {
        "orbit_id" : "7",
        "orbit_determination_date" : "2017-04-06 08:47:02",
        "orbit_uncertainty" : "8",
        "minimum_orbit_intersection" : ".00109258",
        "jupiter_tisserand_invariant" : "4.323",
        "epoch_osculation" : "2456321.5",
        "eccentricity" : ".4596465046550375",
        "semi_major_axis" : "1.551494198437804",
        "inclination" : "2.567112992701249",
        "ascending_node_longitude" : "297.0525895343703",
        "orbital_period" : "705.8682712148294",
        "perihelion_distance" : ".8383553131332981",
        "perihelion_argument" : "120.6671547485838",
        "aphelion_distance" : "2.26463308374231",
        "perihelion_time" : "2456266.632092364798",
        "mean_anomaly" : "27.98319113377616",
        "mean_motion" : ".510010174250253",
        "equinox" : "J2000"
      }
    }, {
      "links" : {
        "self" : "https://api.nasa.gov/neo/rest/v1/neo/3591642?api_key=t0TVs3DtDT2H8Oy2Zy8m2eVrNsAVKAexjcZXUckd"
      },
      "neo_reference_id" : "3591642",
      "name" : "(2011 YX10)",
      "nasa_jpl_url" : "http://ssd.jpl.nasa.gov/sbdb.cgi?sstr=3591642",
      "absolute_magnitude_h" : 21.5,
      "estimated_diameter" : {
        "kilometers" : {
          "estimated_diameter_min" : 0.1332155667,
          "estimated_diameter_max" : 0.2978790628
        },
        "meters" : {
          "estimated_diameter_min" : 133.2155666981,
          "estimated_diameter_max" : 297.8790627982
        },
        "miles" : {
          "estimated_diameter_min" : 0.0827762899,
          "estimated_diameter_max" : 0.1850934111
        },
        "feet" : {
          "estimated_diameter_min" : 437.0589598459,
          "estimated_diameter_max" : 977.2935443908
        }
      },
      "is_potentially_hazardous_asteroid" : false,
      "close_approach_data" : [ {
        "close_approach_date" : "2013-01-15",
        "epoch_date_close_approach" : 1358236800000,
        "relative_velocity" : {
          "kilometers_per_second" : "15.2200852959",
          "kilometers_per_hour" : "54792.3070652602",
          "miles_per_hour" : "34045.8087984112"
        },
        "miss_distance" : {
          "astronomical" : "0.2583258606",
          "lunar" : "100.4887619019",
          "kilometers" : "38645000",
          "miles" : "24012890"
        },
        "orbiting_body" : "Earth"
      } ],
      "orbital_data" : {
        "orbit_id" : "11",
        "orbit_determination_date" : "2017-04-06 08:51:42",
        "orbit_uncertainty" : "2",
        "minimum_orbit_intersection" : ".243116",
        "jupiter_tisserand_invariant" : "6.186",
        "epoch_osculation" : "2458000.5",
        "eccentricity" : ".33056303079038",
        "semi_major_axis" : ".9538734593707913",
        "inclination" : "25.22609662467524",
        "ascending_node_longitude" : "273.0131799649756",
        "orbital_period" : "340.2785508125203",
        "perihelion_distance" : ".6385581576506781",
        "perihelion_argument" : "345.7741281276798",
        "aphelion_distance" : "1.269188761090904",
        "perihelion_time" : "2458111.404491513565",
        "mean_anomaly" : "242.6678412449195",
        "mean_motion" : "1.057956780233102",
        "equinox" : "J2000"
      }
    } ]
  }
}